[
    {
        "Altitude(m)": 624790.7790627804,
        "Argument of Periapsis(deg)": 0.0,
        "Eccentricity": 0.0,
        "Inclination(deg)": 60.0,
        "Latitude(deg)": -59.147067086731035,
        "Longitude(deg)": 141.0344957977492,
        "Mean Anomaly(deg)": -81.81819999999996,
        "RAAN(deg)": 315.0,
        "Satellite Name": "Test1 1403",
        "Satellite Number": 1403,
        "Semi-Major Axis(m)": 6980739.136638005,
        "Time(s)": 0
    },
    {
        "Altitude(m)": 624737.434516456,
        "Argument of Periapsis(deg)": 0.00010418945913296404,
        "Eccentricity": 0.0,
        "Inclination(deg)": 60.0,
        "Latitude(deg)": -58.994523528478815,
        "Longitude(deg)": 142.1539969455892,
        "Mean Anomaly(deg)": -81.1980938545381,
        "RAAN(deg)": 314.99957995086027,
        "Satellite Name": "Test1 1403",
        "Satellite Number": 1403,
        "Semi-Major Axis(m)": 6980739.136638005,
        "Time(s)": 10
    }
]